[{"OBJECT_NAME":"STARLINK-33965","OBJECT_ID":"2025-147A","EPOCH":"2026-03-09T21:28:51.562272","MEAN_MOTION":15.30202192,"ECCENTRICITY":9.915e-5,"INCLINATION":53.1584,"RA_OF_ASC_NODE":241.7689,"ARG_OF_PERICENTER":67.4699,"MEAN_ANOMALY":292.6407,"EPHEMERIS_TYPE":0,"CLASSIFICATION_TYPE":"U","NORAD_CAT_ID":64755,"ELEMENT_SET_NO":999,"REV_AT_EPOCH":3882,"BSTAR":0.001339883,"MEAN_MOTION_DOT":0.00039538,"MEAN_MOTION_DDOT":0},{"OBJECT_NAME":"CZ-6A DEB","OBJECT_ID":"2022-151DV","EPOCH":"2026-03-09T19:16:59.107296","MEAN_MOTION":15.22406517,"ECCENTRICITY":0.00445255,"INCLINATION":98.4509,"RA_OF_ASC_NODE":160.1888,"ARG_OF_PERICENTER":355.6495,"MEAN_ANOMALY":4.4345,"EPHEMERIS_TYPE":0,"CLASSIFICATION_TYPE":"U","NORAD_CAT_ID":54397,"ELEMENT_SET_NO":999,"REV_AT_EPOCH":17880,"BSTAR":0.0035436228,"MEAN_MOTION_DOT":0.00084931,"MEAN_MOTION_DDOT":0}]
